[{"OBJECT_NAME":"SINAH 1","OBJECT_ID":"2005-043D","EPOCH":"2026-03-09T23:01:58.936224","MEAN_MOTION":14.64073832,"ECCENTRICITY":0.00136586,"INCLINATION":98.2684,"RA_OF_ASC_NODE":202.7914,"ARG_OF_PERICENTER":223.4816,"MEAN_ANOMALY":136.531,"EPHEMERIS_TYPE":0,"CLASSIFICATION_TYPE":"U","NORAD_CAT_ID":28893,"ELEMENT_SET_NO":999,"REV_AT_EPOCH":8600,"BSTAR":0.00013062148,"MEAN_MOTION_DOT":6.37e-6,"MEAN_MOTION_DDOT":0},{"OBJECT_NAME":"DELTA 1 DEB","OBJECT_ID":"1972-058CP","EPOCH":"2026-03-09T20:09:16.750944","MEAN_MOTION":14.18392424,"ECCENTRICITY":0.02344429,"INCLINATION":98.0177,"RA_OF_ASC_NODE":12.1537,"ARG_OF_PERICENTER":322.5625,"MEAN_ANOMALY":35.9417,"EPHEMERIS_TYPE":0,"CLASSIFICATION_TYPE":"U","NORAD_CAT_ID":7959,"ELEMENT_SET_NO":999,"REV_AT_EPOCH":73410,"BSTAR":0.00057671081,"MEAN_MOTION_DOT":1.519e-5,"MEAN_MOTION_DDOT":0}]
